[{"OBJECT_NAME":"QIANFAN-30","OBJECT_ID":"2024-185M","EPOCH":"2026-03-09T22:48:50.742720","MEAN_MOTION":13.50020364,"ECCENTRICITY":0.00089916,"INCLINATION":88.9741,"RA_OF_ASC_NODE":71.8387,"ARG_OF_PERICENTER":133.172,"MEAN_ANOMALY":227.0184,"EPHEMERIS_TYPE":0,"CLASSIFICATION_TYPE":"U","NORAD_CAT_ID":61563,"ELEMENT_SET_NO":999,"REV_AT_EPOCH":7983,"BSTAR":0.00030112245,"MEAN_MOTION_DOT":2.04e-6,"MEAN_MOTION_DDOT":0},{"OBJECT_NAME":"NIMBUS 2 DEB","OBJECT_ID":"1966-040BS","EPOCH":"2026-03-05T19:21:08.410176","MEAN_MOTION":13.49912908,"ECCENTRICITY":0.0040272,"INCLINATION":100.2493,"RA_OF_ASC_NODE":278.6801,"ARG_OF_PERICENTER":13.7322,"MEAN_ANOMALY":346.4896,"EPHEMERIS_TYPE":0,"CLASSIFICATION_TYPE":"U","NORAD_CAT_ID":42439,"ELEMENT_SET_NO":999,"REV_AT_EPOCH":50906,"BSTAR":0.0047033453,"MEAN_MOTION_DOT":2.956e-5,"MEAN_MOTION_DDOT":0}]
